[{"OBJECT_NAME":"AETHER-2","OBJECT_ID":"2023-174AV","EPOCH":"2026-03-09T17:13:49.792224","MEAN_MOTION":15.33264165,"ECCENTRICITY":0.00086301,"INCLINATION":97.3931,"RA_OF_ASC_NODE":151.9008,"ARG_OF_PERICENTER":139.5247,"MEAN_ANOMALY":220.6639,"EPHEMERIS_TYPE":0,"CLASSIFICATION_TYPE":"U","NORAD_CAT_ID":58299,"ELEMENT_SET_NO":999,"REV_AT_EPOCH":12998,"BSTAR":0.00026165949,"MEAN_MOTION_DOT":8.341e-5,"MEAN_MOTION_DDOT":0},{"OBJECT_NAME":"STARLINK-35217","OBJECT_ID":"2025-210F","EPOCH":"2026-03-09T22:15:28.405440","MEAN_MOTION":15.302208,"ECCENTRICITY":0.00013291,"INCLINATION":53.1599,"RA_OF_ASC_NODE":306.2446,"ARG_OF_PERICENTER":80.9871,"MEAN_ANOMALY":279.128,"EPHEMERIS_TYPE":0,"CLASSIFICATION_TYPE":"U","NORAD_CAT_ID":65627,"ELEMENT_SET_NO":999,"REV_AT_EPOCH":2776,"BSTAR":0.00071735138,"MEAN_MOTION_DOT":0.0002096,"MEAN_MOTION_DDOT":0}]
